NORAD_CAT_ID,OBJECT_NAME,OBJECT_TYPE,EPOCH,MEAN_MOTION,ECCENTRICITY,INCLINATION,RA_OF_ASC_NODE,ARG_OF_PERICENTER,MEAN_ANOMALY,BSTAR,MEAN_MOTION_DOT,MEAN_MOTION_DDOT,TLE_LINE0,TLE_LINE1,TLE_LINE2,SEMIMAJOR_AXIS,PERIOD,APOGEE,PERIGEE,DECAYED
53594.0,STARLINK-4681,PAYLOAD,2023-10-31 13:14:45,15.08846233,0.0001472,53.2145,145.4043,90.3277,269.7884,-8.367e-05,-1.62e-05,0.0,0 STARLINK-4681,1 53594U 22104G   23304.55191777 -.00001620  00000-0 -83670-4 0  9998,2 53594  53.2145 145.4043 0001472  90.3277 269.7884 15.08846233 65073,6917.861,95.437,540.745,538.708,0.0
53594.0,STARLINK-4681,PAYLOAD,2023-10-31 21:11:41,15.08827993,0.0001352,53.2172,143.9149,99.4772,260.6373,-0.00030805,-5.186e-05,0.0,0 STARLINK-4681,1 53594U 22104G   23304.88312457 -.00005186  00000-0 -30805-3 0  9996,2 53594  53.2172 143.9149 0001352  99.4772 260.6373 15.08827993 65121,6917.917,95.438,540.717,538.847,0.0
53594.0,STARLINK-4681,PAYLOAD,2023-11-01 13:05:34,15.08822185,0.0001407,53.2167,140.9433,93.2426,266.8728,-7.4279e-05,-1.469e-05,0.0,0 STARLINK-4681,1 53594U 22104G   23305.54553526 -.00001469  00000-0 -74279-4 0  9998,2 53594  53.2167 140.9433 0001407  93.2426 266.8728 15.08822185 66386,6917.935,95.439,540.773,538.826,0.0
53594.0,STARLINK-4681,PAYLOAD,2023-11-01 19:27:06,15.08827431,0.0001534,53.2161,139.7543,91.5069,268.6099,0.00017976,2.573e-05,0.0,0 STARLINK-4681,1 53594U 22104G   23305.81049749  .00002573  00000-0  17976-3 0  9990,2 53594  53.2161 139.7543 0001534  91.5069 268.6099 15.08827431 66428,6917.919,95.438,540.845,538.723,0.0
53594.0,STARLINK-4681,PAYLOAD,2023-11-02 12:56:21,15.08840803,0.0001626,53.2158,136.4834,90.4483,269.6695,0.00062064,9.603e-05,0.0,0 STARLINK-4681,1 53594U 22104G   23306.53914249  .00009603  00000-0  62064-3 0  9995,2 53594  53.2158 136.4834 0001626  90.4483 269.6695 15.08840803 65375,6917.878,95.438,540.868,538.618,0.0
53594.0,STARLINK-4681,PAYLOAD,2023-11-02 19:17:54,15.08848023,0.0001632,53.2159,135.294,90.0869,270.031,0.00067187,0.00010423,0.0,0 STARLINK-4681,1 53594U 22104G   23306.80410108  .00010423  00000-0  67187-3 0  9993,2 53594  53.2159 135.2940 0001632  90.0869 270.0310 15.08848023 66577,6917.856,95.437,540.85,538.592,0.0
53594.0,STARLINK-4681,PAYLOAD,2023-11-03 12:47:08,15.0884834,0.0001718,53.2158,132.023,89.0028,271.1161,0.00028653,4.276e-05,0.0,0 STARLINK-4681,1 53594U 22104G   23307.53273861  .00004276  00000-0  28653-3 0  9991,2 53594  53.2158 132.0230 0001718  89.0028 271.1161 15.08848340 66683,6917.855,95.437,540.908,538.531,0.0
53594.0,STARLINK-4681,PAYLOAD,2023-11-03 20:44:04,15.08853079,0.0001637,53.2164,130.5361,91.9926,268.1254,0.00038221,5.802e-05,0.0,0 STARLINK-4681,1 53594U 22104G   23307.86393629  .00005802  00000-0  38221-3 0  9990,2 53594  53.2164 130.5361 0001637  91.9926 268.1254 15.08853079 65578,6917.84,95.437,540.838,538.573,0.0
53594.0,STARLINK-4681,PAYLOAD,2023-11-03 22:19:27,15.08854282,0.0001627,53.2164,130.2386,92.2251,267.8927,0.00040561,6.176e-05,0.0,0 STARLINK-4681,1 53594U 22104G   23307.93017559  .00006176  00000-0  40561-3 0  9998,2 53594  53.2164 130.2386 0001627  92.2251 267.8927 15.08854282 66746,6917.837,95.437,540.827,538.576,0.0
53594.0,STARLINK-4681,PAYLOAD,2023-11-04 18:59:28,15.08837037,0.0001624,53.2164,126.3731,93.097,267.0208,-4.4865e-05,-1.002e-05,0.0,0 STARLINK-4681,1 53594U 22104G   23308.79130066 -.00001002  00000-0 -44865-4 0  9999,2 53594  53.2164 126.3731 0001624  93.0970 267.0208 15.08837037 65719,6917.889,95.438,540.878,538.631,0.0
53594.0,STARLINK-4681,PAYLOAD,2023-11-05 12:28:42,15.08848155,0.0001574,53.2164,123.1024,87.9445,272.1728,0.00015712,2.214e-05,0.0,0 STARLINK-4681,1 53594U 22104G   23309.51993672  .00002214  00000-0  15712-3 0  9992,2 53594  53.2164 123.1024 0001574  87.9445 272.1728 15.08848155 65821,6917.855,95.437,540.809,538.632,0.0
53594.0,STARLINK-4681,PAYLOAD,2023-11-05 18:50:14,15.0885505,0.0001425,53.2162,121.9126,91.6951,268.4204,0.00044234,6.762e-05,0.0,0 STARLINK-4681,1 53594U 22104G   23309.78489477  .00006762  00000-0  44234-3 0  9997,2 53594  53.2162 121.9126 0001425  91.6951 268.4204 15.08855050 67020,6917.834,95.437,540.685,538.714,0.0
53594.0,STARLINK-4681,PAYLOAD,2023-11-06 04:22:33,15.08861957,0.0001344,53.2161,120.1285,88.1987,271.9159,0.00057162,8.826e-05,0.0,0 STARLINK-4681,1 53594U 22104G   23310.18233096  .00008826  00000-0  57162-3 0  9994,2 53594  53.2161 120.1285 0001344  88.1987 271.9159 15.08861957 65924,6917.813,95.436,540.608,538.749,0.0
53594.0,STARLINK-4681,PAYLOAD,2023-11-06 18:41:01,15.0884933,0.0001396,53.2163,117.4504,79.4471,280.6678,0.00013217,1.817e-05,0.0,0 STARLINK-4681,1 53594U 22104G   23310.77848965  .00001817  00000-0  13217-3 0  9992,2 53594  53.2163 117.4504 0001396  79.4471 280.6678 15.08849330 66012,6917.852,95.437,540.683,538.751,0.0
53594.0,STARLINK-4681,PAYLOAD,2023-11-07 04:13:20,15.08840808,0.0001232,53.2158,115.6678,89.7296,270.3837,-5.0133e-06,-3.68e-06,0.0,0 STARLINK-4681,1 53594U 22104G   23311.17593309 -.00000368  00000-0 -50133-5 0  9998,2 53594  53.2158 115.6678 0001232  89.7296 270.3837 15.08840808 66076,6917.878,95.438,540.595,538.891,0.0
53594.0,STARLINK-4681,PAYLOAD,2023-11-07 18:31:49,15.08827036,0.0001607,53.2177,112.9911,77.0636,283.0536,-0.00023056,-3.954e-05,0.0,0 STARLINK-4681,1 53594U 22104G   23311.77210405 -.00003954  00000-0 -23056-3 0  9993,2 53594  53.2177 112.9911 0001607  77.0636 283.0536 15.08827036 66166,6917.92,95.438,540.897,538.673,0.0
53594.0,STARLINK-4681,PAYLOAD,2023-11-08 10:25:41,15.08835562,0.0001322,53.2178,110.0166,85.7789,274.3355,4.3573e-05,4.06e-06,0.0,0 STARLINK-4681,1 53594U 22104G   23312.43450409  .00000406  00000-0  43573-4 0  9991,2 53594  53.2178 110.0166 0001322  85.7789 274.3355 15.08835562 66263,6917.894,95.438,540.673,538.844,0.0
53594.0,STARLINK-4681,PAYLOAD,2023-11-08 18:22:36,15.08842057,0.0001321,53.2162,108.5309,85.1808,274.9335,0.00023698,3.486e-05,0.0,0 STARLINK-4681,1 53594U 22104G   23312.76570048  .00003486  00000-0  23698-3 0  9995,2 53594  53.2162 108.5309 0001321  85.1808 274.9335 15.08842057 67477,6917.874,95.437,540.653,538.825,0.0
53594.0,STARLINK-4681,PAYLOAD,2023-11-09 10:16:28,15.08836897,0.0001371,53.2165,105.5592,87.9117,272.2033,0.00028985,4.328e-05,0.0,0 STARLINK-4681,1 53594U 22104G   23313.42810592  .00004328  00000-0  28985-3 0  9990,2 53594  53.2165 105.5592 0001371  87.9117 272.2033 15.08836897 67571,6917.89,95.438,540.703,538.806,0.0
53594.0,STARLINK-4681,PAYLOAD,2023-11-09 16:38:00,15.08840872,0.0001316,53.2166,104.3687,93.7111,266.4032,0.00024328,3.586e-05,0.0,0 STARLINK-4681,1 53594U 22104G   23313.69306408  .00003586  00000-0  24328-3 0  9997,2 53594  53.2166 104.3687 0001316  93.7111 266.4032 15.08840872 66450,6917.878,95.437,540.653,538.832,0.0
53594.0,STARLINK-4681,PAYLOAD,2023-11-10 14:53:24,15.0883569,0.0001029,53.2163,100.2055,93.4489,266.6621,0.00023398,3.438e-05,0.0,0 STARLINK-4681,1 53594U 22104G   23314.62042790  .00003438  00000-0  23398-3 0  9994,2 53594  53.2163 100.2055 0001029  93.4489 266.6621 15.08835690 67759,6917.894,95.438,540.47,539.047,0.0
53594.0,STARLINK-4681,PAYLOAD,2023-11-10 16:28:47,15.08843424,0.0001335,53.2179,99.9072,90.8563,269.2582,5.6152e-05,6.06e-06,0.0,0 STARLINK-4681,1 53594U 22104G   23314.68666469  .00000606  00000-0  56152-4 0  9994,2 53594  53.2179  99.9072 0001335  90.8563 269.2582 15.08843424 67763,6917.87,95.437,540.658,538.811,0.0
53594.0,STARLINK-4681,PAYLOAD,2023-11-11 13:08:48,15.08841781,0.0001478,53.2188,96.0418,92.4858,267.6304,6.827e-05,7.99e-06,0.0,0 STARLINK-4681,1 53594U 22104G   23315.54778510  .00000799  00000-0  68270-4 0  9998,2 53594  53.2188  96.0418 0001478  92.4858 267.6304 15.08841781 67890,6917.875,95.437,540.762,538.717,0.0
53594.0,STARLINK-4681,PAYLOAD,2023-11-11 16:19:34,15.08842155,0.0001299,53.2189,95.4474,91.4145,268.6996,0.00012041,1.629e-05,0.0,0 STARLINK-4681,1 53594U 22104G   23315.68026337  .00001629  00000-0  12041-3 0  9993,2 53594  53.2189  95.4474 0001299  91.4145 268.6996 15.08842155 67912,6917.874,95.437,540.637,538.84,0.0
53594.0,STARLINK-4681,PAYLOAD,2023-11-12 01:51:53,15.08841568,0.0001297,53.2187,93.6634,88.8527,271.2614,-2.5982e-05,-7.01e-06,0.0,0 STARLINK-4681,1 53594U 22104G   23316.07770541 -.00000701  00000-0 -25982-4 0  9991,2 53594  53.2187  93.6634 0001297  88.8527 271.2614 15.08841568 66812,6917.876,95.437,540.638,538.843,0.0
53594.0,STARLINK-4681,PAYLOAD,2023-11-12 09:48:49,15.0883399,0.0001299,53.2188,92.1767,87.5433,272.5708,5.125e-05,5.28e-06,0.0,0 STARLINK-4681,1 53594U 22104G   23316.40891039  .00000528  00000-0  51250-4 0  9996,2 53594  53.2188  92.1767 0001299  87.5433 272.5708 15.08833990 66861,6917.899,95.438,540.662,538.865,0.0
53594.0,STARLINK-4681,PAYLOAD,2023-11-12 12:59:36,15.08835978,0.0001298,53.2189,91.5822,87.5525,272.5615,6.2532e-05,7.07e-06,0.0,0 STARLINK-4681,1 53594U 22104G   23316.54138922  .00000707  00000-0  62532-4 0  9990,2 53594  53.2189  91.5822 0001298  87.5525 272.5615 15.08835978 68045,6917.893,95.438,540.656,538.86,0.0
53594.0,STARLINK-4681,PAYLOAD,2023-11-12 16:10:21,15.08845566,0.0001438,53.2191,90.988,82.8071,277.3084,1.9242e-06,-2.57e-06,0.0,0 STARLINK-4681,1 53594U 22104G   23316.67386379 -.00000257  00000-0  19242-5 0  9997,2 53594  53.2191  90.9880 0001438  82.8071 277.3084 15.08845566 66905,6917.863,95.437,540.723,538.734,0.0
53594.0,STARLINK-4681,PAYLOAD,2023-11-13 12:50:22,15.08845473,0.0001278,53.219,87.1233,89.903,270.2109,2.9234e-05,1.77e-06,0.0,0 STARLINK-4681,1 53594U 22104G   23317.53498459  .00000177  00000-0  29234-4 0  9997,2 53594  53.2190  87.1233 0001278  89.9030 270.2109 15.08845473 68199,6917.864,95.437,540.613,538.845,0.0
53594.0,STARLINK-4681,PAYLOAD,2023-11-14 01:33:27,15.08840976,0.0001304,53.2191,84.7451,95.8921,264.222,4.2088e-05,3.82e-06,0.0,0 STARLINK-4681,1 53594U 22104G   23318.06490635  .00000382  00000-0  42088-4 0  9994,2 53594  53.2191  84.7451 0001304  95.8921 264.2220 15.08840976 67111,6917.877,95.437,540.644,538.84,0.0
